NORAD_CAT_ID,OBJECT_NAME,OBJECT_TYPE,EPOCH,MEAN_MOTION,ECCENTRICITY,INCLINATION,RA_OF_ASC_NODE,ARG_OF_PERICENTER,MEAN_ANOMALY,BSTAR,MEAN_MOTION_DOT,MEAN_MOTION_DDOT,TLE_LINE0,TLE_LINE1,TLE_LINE2,SEMIMAJOR_AXIS,PERIOD,APOGEE,PERIGEE,DECAYED
49454.0,STARLINK-3160,PAYLOAD,2021-12-29 14:00:01,15.73204527,0.0002353,53.2175,265.0831,26.7779,251.5156,1.5809e-06,-4e-06,0.0,0 STARLINK-3160,1 49454U 21104AY  21363.58335648 -.00000400  00000-0  15809-5 0  9994,2 49454  53.2175 265.0831 0002353  26.7779 251.5156 15.73204527  3719,6727.882,91.533,351.33,348.164,0.0
49454.0,STARLINK-3160,PAYLOAD,2021-12-29 20:00:01,15.73445025,0.0002164,53.2174,263.8521,29.6072,225.5724,-0.0051379,-0.00673919,0.0,0 STARLINK-3160,1 49454U 21104AY  21363.83335648 -.00673919  00000-0 -51379-2 0  9993,2 49454  53.2174 263.8521 0002164  29.6072 225.5724 15.73445025  8579,6727.196999999999,91.519,350.517,347.606,0.0
49454.0,STARLINK-3160,PAYLOAD,2021-12-29 21:58:09,15.73212359,0.0002414,53.2169,263.4522,21.6167,338.4955,1.3541e-05,1.28e-05,0.0,0 STARLINK-3160,1 49454U 21104AY  21363.91539214  .00001280  00000-0  13541-4 0  9992,2 49454  53.2169 263.4522 0002414  21.6167 338.4955 15.73212359  7509,6727.86,91.532,351.349,348.101,0.0
49454.0,STARLINK-3160,PAYLOAD,2021-12-30 02:32:36,15.73216941,0.0002448,53.2169,262.5081,29.1293,330.9863,5.6744e-05,7.355e-05,0.0,0 STARLINK-3160,1 49454U 21104AY  21364.10597542  .00007355  00000-0  56744-4 0  9993,2 49454  53.2169 262.5081 0002448  29.1293 330.9863 15.73216941  8618,6727.847,91.532,351.3590000000001,348.065,0.0
49454.0,STARLINK-3160,PAYLOAD,2021-12-30 14:00:01,15.73199279,0.0002119,53.2161,260.1467,21.128,164.1705,-0.00023056,-0.00032855,0.0,0 STARLINK-3160,1 49454U 21104AY  21364.58334491 -.00032855  00000-0 -23056-3 0  9991,2 49454  53.2161 260.1467 0002119  21.1280 164.1705 15.73199279  3683,6727.897,91.533,351.18800000000016,348.337,0.0
49454.0,STARLINK-3160,PAYLOAD,2021-12-30 20:00:01,15.73182804,0.0002136,53.2166,258.9104,19.42,142.5778,-1.2667e-05,-2.397e-05,0.0,0 STARLINK-3160,1 49454U 21104AY  21364.83334491 -.00002397  00000-0 -12667-4 0  9994,2 49454  53.2166 258.9104 0002136  19.4200 142.5778 15.73182804  8739,6727.944,91.534,351.246,348.372,0.0
49454.0,STARLINK-3160,PAYLOAD,2021-12-30 22:21:50,15.73189582,0.0001934,53.2169,258.4191,28.5743,331.5383,-8.6321e-05,-0.00012712,0.0,0 STARLINK-3160,1 49454U 21104AY  21364.93183365 -.00012712  00000-0 -86321-4 0  9997,2 49454  53.2169 258.4191 0001934  28.5743 331.5383 15.73189582  7664,6727.925,91.534,351.091,348.48900000000015,0.0
49454.0,STARLINK-3160,PAYLOAD,2021-12-31 14:00:01,15.73167289,0.0002217,53.2166,255.1986,23.8743,68.1761,8.618e-05,0.00011474,0.0,0 STARLINK-3160,1 49454U 21104AY  21365.58334491  .00011474  00000-0  86180-4 0  9992,2 49454  53.2166 255.1986 0002217  23.8743  68.1761 15.73167289  3692,6727.988,91.535,351.345,348.362,0.0
49454.0,STARLINK-3160,PAYLOAD,2021-12-31 22:45:32,15.73189268,0.0002619,53.2167,253.3936,17.9338,342.1774,3.7297e-05,4.613e-05,0.0,0 STARLINK-3160,1 49454U 21104AY  21365.94829800  .00004613  00000-0  37297-4 0  9997,2 49454  53.2167 253.3936 0002619  17.9338 342.1774 15.73189268  7827,6727.926,91.534,351.55300000000005,348.029,0.0
49454.0,STARLINK-3160,PAYLOAD,2022-01-01 04:00:00,15.73161588,0.0002542,53.216,252.3146,25.6314,131.9826,0.00054081,0.00075848,0.0,0 STARLINK-3160,1 49454U 21104AY  22001.16667824  .00075848  00000-0  54081-3 0  9992,2 49454  53.2160 252.3146 0002542  25.6314 131.9826 15.73161588  8948,6728.005,91.535,351.58,348.159,0.0
49454.0,STARLINK-3160,PAYLOAD,2022-01-01 12:00:00,15.7318256,0.0002293,53.2158,250.6632,28.4393,218.0889,0.00044096,0.00061679,0.0,0 STARLINK-3160,1 49454U 21104AY  22001.50001157  .00061679  00000-0  44096-3 0  9993,2 49454  53.2158 250.6632 0002293  28.4393 218.0889 15.73182560  8991,6727.945,91.534,351.353,348.267,0.0
49454.0,STARLINK-3160,PAYLOAD,2022-01-01 14:00:01,15.73187347,0.0002248,53.2155,250.25,29.6258,329.2108,0.0005741,0.00080689,0.0,0 STARLINK-3160,1 49454U 21104AY  22001.58335648  .00080689  00000-0  57410-3 0  9992,2 49454  53.2155 250.2500 0002248  29.6258 329.2108 15.73187347  3678,6727.931,91.534,351.309,348.284,0.0
49454.0,STARLINK-3160,PAYLOAD,2022-01-01 22:00:00,15.73251022,0.000244,53.216,248.6029,27.5158,60.1756,-0.00028153,-0.00040037,0.0,0 STARLINK-3160,1 49454U 21104AY  22001.91667824 -.00040037  00000-0 -28153-3 0  9990,2 49454  53.2160 248.6029 0002440  27.5158  60.1756 15.73251022  3684,6727.75,91.53,351.256,347.973,0.0
49454.0,STARLINK-3160,PAYLOAD,2022-01-02 04:00:00,15.73265254,0.0002545,53.216,247.362,23.6645,40.7772,-0.00066967,-0.00093843,0.0,0 STARLINK-3160,1 49454U 21104AY  22002.16667824 -.00093843  00000-0 -66967-3 0  9996,2 49454  53.2160 247.3620 0002545  23.6645  40.7772 15.73265254  9096,6727.709,91.529,351.286,347.862,0.0
49454.0,STARLINK-3160,PAYLOAD,2022-01-02 12:00:00,15.73003355,0.0002347,53.217,245.7056,18.9868,134.4767,-0.0011507,-0.00157817,0.0,0 STARLINK-3160,1 49454U 21104AY  22002.50001157 -.00157817  00000-0 -11507-2 0  9996,2 49454  53.2170 245.7056 0002347  18.9868 134.4767 15.73003355  9150,6728.456,91.545,351.9,348.742,0.0
49454.0,STARLINK-3160,PAYLOAD,2022-01-02 14:00:01,15.72896601,0.0002284,53.217,245.2918,20.9458,244.7235,-0.00027038,-0.00037911,0.0,0 STARLINK-3160,1 49454U 21104AY  22002.58334491 -.00037911  00000-0 -27038-3 0  9993,2 49454  53.2170 245.2918 0002284  20.9458 244.7235 15.72896601  3691,6728.76,91.551,352.162,349.088,0.0
49454.0,STARLINK-3160,PAYLOAD,2022-01-02 20:00:01,15.73008061,0.0002345,53.2178,244.0536,20.453,221.631,-0.0051342,-0.00661856,0.0,0 STARLINK-3160,1 49454U 21104AY  22002.83334491 -.00661856  00000-0 -51342-2 0  9996,2 49454  53.2178 244.0536 0002345  20.4530 221.6310 15.73008061  9203,6728.441999999999,91.544,351.885,348.73,0.0
49454.0,STARLINK-3160,PAYLOAD,2022-01-02 22:00:00,15.72891628,0.0002376,53.2176,243.642,16.8524,337.3869,-0.0051684,-0.00662864,0.0,0 STARLINK-3160,1 49454U 21104AY  22002.91667824 -.00662864  00000-0 -51684-2 0  9993,2 49454  53.2176 243.6420 0002376  16.8524 337.3869 15.72891628  3693,6728.774,91.551,352.23800000000006,349.041,0.0
49454.0,STARLINK-3160,PAYLOAD,2022-01-03 14:00:01,15.71958343,0.000244,53.2173,240.3465,19.1841,151.0381,-0.0053768,-0.00662614,0.0,0 STARLINK-3160,1 49454U 21104AY  22003.58334491 -.00662614  00000-0 -53768-2 0  9996,2 49454  53.2173 240.3465 0002440  19.1841 151.0381 15.71958343  3690,6731.438,91.605,354.945,351.66,0.0
49454.0,STARLINK-3160,PAYLOAD,2022-01-03 20:00:01,15.71610617,0.0002565,53.2173,239.1139,350.214,155.4874,-0.0054927,-0.00666659,0.0,0 STARLINK-3160,1 49454U 21104AY  22003.83335648 -.00666659  00000-0 -54927-2 0  9990,2 49454  53.2173 239.1139 0002565 350.2140 155.4874 15.71610617  9367,6732.43,91.626,356.022,352.569,0.0
49454.0,STARLINK-3160,PAYLOAD,2022-01-03 22:00:00,15.71486314,0.0002514,53.2173,238.7034,358.504,258.8693,-0.0054067,-0.00653763,0.0,0 STARLINK-3160,1 49454U 21104AY  22003.91667824 -.00653763  00000-0 -54067-2 0  9990,2 49454  53.2173 238.7034 0002514 358.5040 258.8693 15.71486314  3692,6732.785,91.633,356.343,352.958,0.0
49454.0,STARLINK-3160,PAYLOAD,2022-01-04 14:00:01,15.70558652,0.0001574,53.2174,235.4145,24.5255,45.4649,-0.0057031999999999,-0.00662206,0.0,0 STARLINK-3160,1 49454U 21104AY  22004.58334491 -.00662206  00000-0 -57032-2 0  9992,2 49454  53.2174 235.4145 0001574  24.5255  45.4649 15.70558652  3744,6735.436,91.687,358.361,356.241,0.0
49454.0,STARLINK-3160,PAYLOAD,2022-01-04 21:20:23,15.70635534,0.0002928,53.2159,233.9169,302.7297,57.344,-0.0028764,-0.00348179,0.0,0 STARLINK-3160,1 49454U 21104AY  22004.88915550 -.00348179  00000-0 -28764-2 0  9996,2 49454  53.2159 233.9169 0002928 302.7297  57.3440 15.70635534  8445,6735.217,91.683,359.05400000000014,355.1090000000001,0.0
49454.0,STARLINK-3160,PAYLOAD,2022-01-05 04:00:00,15.69743636,0.0002288,53.2172,232.5443,13.6758,115.5141,-0.0059206,-0.00664335,0.0,0 STARLINK-3160,1 49454U 21104AY  22005.16667824 -.00664335  00000-0 -59206-2 0  9996,2 49454  53.2172 232.5443 0002288  13.6758 115.5141 15.69743636  9569,6737.767,91.735,361.174,358.091,0.0
49454.0,STARLINK-3160,PAYLOAD,2022-01-05 14:00:01,15.69084166,0.0001538,53.2168,230.4936,44.6896,280.0606,-0.0050571,-0.00559015,0.0,0 STARLINK-3160,1 49454U 21104AY  22005.58334491 -.00559015  00000-0 -50571-2 0  9997,2 49454  53.2168 230.4936 0001538  44.6896 280.0606 15.69084166  3678,6739.655,91.773,362.557,360.484,0.0
49454.0,STARLINK-3160,PAYLOAD,2022-01-05 22:00:00,15.68693349,0.0001626999999999,53.2173,228.8568,34.4015,14.0956,-0.0061765,-0.00663354,0.0,0 STARLINK-3160,1 49454U 21104AY  22005.91667824 -.00663354  00000-0 -61765-2 0  9992,2 49454  53.2173 228.8568 0001627  34.4015  14.0956 15.68693349  3698,6740.775,91.796,363.736,361.543,0.0
49454.0,STARLINK-3160,PAYLOAD,2022-01-06 12:00:00,15.67875019,0.000139,53.2172,225.9904,43.3672,60.4089,-0.0063615,-0.00660708,0.0,0 STARLINK-3160,1 49454U 21104AY  22006.50001157 -.00660708  00000-0 -63615-2 0  9995,2 49454  53.2172 225.9904 0001390  43.3672  60.4089 15.67875019  9776,6743.12,91.844,365.922,364.048,0.0
49454.0,STARLINK-3160,PAYLOAD,2022-01-06 14:00:01,15.67661449,0.0001608,53.2168,225.5818,40.3248,174.1135,-0.0050223,-0.00525667,0.0,0 STARLINK-3160,1 49454U 21104AY  22006.58334491 -.00525667  00000-0 -50223-2 0  9998,2 49454  53.2168 225.5818 0001608  40.3248 174.1135 15.67661449  3666,6743.732,91.857,366.682,364.513,0.0
49454.0,STARLINK-3160,PAYLOAD,2022-01-06 22:00:00,15.67292797,0.0001605,53.2175,223.9488,40.0816,256.4107,-0.0065281,-0.0066196,0.0,0 STARLINK-3160,1 49454U 21104AY  22006.91667824 -.00661960  00000-0 -65281-2 0  9991,2 49454  53.2175 223.9488 0001605  40.0816 256.4107 15.67292797  3708,6744.79,91.878,367.737,365.572,0.0
